{
  "norad_id": 59961,
  "name": "STARLINK-31993",
  "history": [
    {
      "epoch": "2026-04-13T03:49:04.237248Z",
      "apogee_km": 475.60736481148433,
      "perigee_km": 474.8857035253359,
      "latitude_deg": 4.4148779253743115e-05,
      "longitude_deg": 6.8175152470716744,
      "height_km": 476.19661129243815,
      "semi_major_axis_km": 6853.38353416841,
      "eccentricity": 5.265e-05,
      "inclination_deg": 53.1598,
      "raan_deg": 265.439,
      "arg_perigee_deg": 98.1329,
      "mean_anomaly_deg": 261.9732,
      "mean_motion_rev_day": 15.30189462
    },
    {
      "epoch": "2026-04-14T17:26:20.961600Z",
      "apogee_km": 475.8568303673601,
      "perigee_km": 474.62733416000265,
      "latitude_deg": -2.660320899635532e-06,
      "longitude_deg": 153.6713447679418,
      "height_km": 476.08282323764513,
      "semi_major_axis_km": 6853.379082263681,
      "eccentricity": 8.97e-05,
      "inclination_deg": 53.1599,
      "raan_deg": 258.1576,
      "arg_perigee_deg": 84.6023,
      "mean_anomaly_deg": 275.508,
      "mean_motion_rev_day": 15.30190953
    },
    {
      "epoch": "2026-04-15T20:05:14.939808Z",
      "apogee_km": 475.72684423206556,
      "perigee_km": 474.7166591520672,
      "latitude_deg": 3.3100183935070786e-05,
      "longitude_deg": 107.69515638510794,
      "height_km": 476.0237002959213,
      "semi_major_axis_km": 6853.358751692066,
      "eccentricity": 7.37e-05,
      "inclination_deg": 53.1608,
      "raan_deg": 253.0007,
      "arg_perigee_deg": 78.9351,
      "mean_anomaly_deg": 281.1733,
      "mean_motion_rev_day": 15.30197762
    },
    {
      "epoch": "2026-04-16T16:27:55.895904Z",
      "apogee_km": 475.8502219273287,
      "perigee_km": 474.5508291324886,
      "latitude_deg": -6.274319452356106e-06,
      "longitude_deg": 157.24318177084334,
      "height_km": 476.0528537100195,
      "semi_major_axis_km": 6853.337525529908,
      "eccentricity": 9.48e-05,
      "inclination_deg": 53.1608,
      "raan_deg": 249.0563,
      "arg_perigee_deg": 85.9157,
      "mean_anomaly_deg": 274.1952,
      "mean_motion_rev_day": 15.30204871
    },
    {
      "epoch": "2026-04-17T17:32:47.872896Z",
      "apogee_km": 475.89139639486257,
      "perigee_km": 474.61885854463344,
      "latitude_deg": -3.256466507396704e-06,
      "longitude_deg": 135.1411702890595,
      "height_km": 475.9606871341499,
      "semi_major_axis_km": 6853.392127469748,
      "eccentricity": 9.284e-05,
      "inclination_deg": 53.1604,
      "raan_deg": 244.2009,
      "arg_perigee_deg": 72.3351,
      "mean_anomaly_deg": 287.7751,
      "mean_motion_rev_day": 15.30186584
    },
    {
      "epoch": "2026-04-18T13:55:29.145216Z",
      "apogee_km": 475.8637616208716,
      "perigee_km": 474.6068531396968,
      "latitude_deg": 5.081304130180378e-05,
      "longitude_deg": -175.31245723098627,
      "height_km": 475.9027345357799,
      "semi_major_axis_km": 6853.372307380284,
      "eccentricity": 9.17e-05,
      "inclination_deg": 53.16,
      "raan_deg": 240.2561,
      "arg_perigee_deg": 68.4144,
      "mean_anomaly_deg": 291.6955,
      "mean_motion_rev_day": 15.30193222
    },
    {
      "epoch": "2026-04-19T15:00:19.768320Z",
      "apogee_km": 475.86668806230955,
      "perigee_km": 474.6070379462899,
      "latitude_deg": -1.926691414824131e-06,
      "longitude_deg": 162.5914441612063,
      "height_km": 476.1327923169481,
      "semi_major_axis_km": 6853.3738630043,
      "eccentricity": 9.19e-05,
      "inclination_deg": 53.1599,
      "raan_deg": 235.401,
      "arg_perigee_deg": 89.763,
      "mean_anomaly_deg": 270.3476,
      "mean_motion_rev_day": 15.30192701
    },
    {
      "epoch": "2026-04-20T14:31:07.135680Z",
      "apogee_km": 475.8367052695039,
      "perigee_km": 474.5525279911799,
      "latitude_deg": -7.109145317459536e-06,
      "longitude_deg": 164.37942342135548,
      "height_km": 476.0952464775603,
      "semi_major_axis_km": 6853.331616630342,
      "eccentricity": 9.369e-05,
      "inclination_deg": 53.1603,
      "raan_deg": 230.852,
      "arg_perigee_deg": 90.1847,
      "mean_anomaly_deg": 269.9261,
      "mean_motion_rev_day": 15.3020685
    },
    {
      "epoch": "2026-04-21T14:01:56.473824Z",
      "apogee_km": 475.5864560197015,
      "perigee_km": 474.90660037370435,
      "latitude_deg": -4.7559602628710574e-05,
      "longitude_deg": 166.158241728606,
      "height_km": 476.05738628027257,
      "semi_major_axis_km": 6853.383528196702,
      "eccentricity": 4.96e-05,
      "inclination_deg": 53.1611,
      "raan_deg": 226.3021,
      "arg_perigee_deg": 74.93,
      "mean_anomaly_deg": 285.1755,
      "mean_motion_rev_day": 15.30189464
    },
    {
      "epoch": "2026-04-22T13:32:44.464128Z",
      "apogee_km": 475.9691879148504,
      "perigee_km": 474.57657502693473,
      "latitude_deg": -4.587185824497915e-06,
      "longitude_deg": 167.94165350836298,
      "height_km": 476.1457594064574,
      "semi_major_axis_km": 6853.409881470892,
      "eccentricity": 0.0001016,
      "inclination_deg": 53.1604,
      "raan_deg": 221.7511,
      "arg_perigee_deg": 87.8948,
      "mean_anomaly_deg": 272.2169,
      "mean_motion_rev_day": 15.30180638
    },
    {
      "epoch": "2026-04-23T13:03:31.919616Z",
      "apogee_km": 476.0199943964881,
      "perigee_km": 474.41452762730387,
      "latitude_deg": -4.207895614347738e-05,
      "longitude_deg": 169.72674027522618,
      "height_km": 476.1800865003694,
      "semi_major_axis_km": 6853.354261011896,
      "eccentricity": 0.00011713,
      "inclination_deg": 53.16,
      "raan_deg": 217.1996,
      "arg_perigee_deg": 94.6163,
      "mean_anomaly_deg": 265.4971,
      "mean_motion_rev_day": 15.30199266
    },
    {
      "epoch": "2026-04-24T15:42:26.856000Z",
      "apogee_km": 475.9092668635885,
      "perigee_km": 474.57971085474946,
      "latitude_deg": 3.990373299196748e-05,
      "longitude_deg": 123.74667951092096,
      "height_km": 476.19839056600455,
      "semi_major_axis_km": 6853.381488859169,
      "eccentricity": 9.7e-05,
      "inclination_deg": 53.1605,
      "raan_deg": 212.0428,
      "arg_perigee_deg": 94.7781,
      "mean_anomaly_deg": 265.3331,
      "mean_motion_rev_day": 15.30190147
    },
    {
      "epoch": "2026-04-25T15:13:14.670912Z",
      "apogee_km": 475.86504546389733,
      "perigee_km": 474.61910114836974,
      "latitude_deg": 6.302423307411684e-05,
      "longitude_deg": 125.53201141262677,
      "height_km": 476.25278031676436,
      "semi_major_axis_km": 6853.379073306133,
      "eccentricity": 9.09e-05,
      "inclination_deg": 53.1606,
      "raan_deg": 207.493,
      "arg_perigee_deg": 100.3643,
      "mean_anomaly_deg": 259.7461,
      "mean_motion_rev_day": 15.30190956
    },
    {
      "epoch": "2026-04-26T14:44:02.319936Z",
      "apogee_km": 475.9373164087974,
      "perigee_km": 474.5057868745307,
      "latitude_deg": 1.5116460025235113e-06,
      "longitude_deg": 127.31817402110859,
      "height_km": 476.1810019107972,
      "semi_major_axis_km": 6853.358551641663,
      "eccentricity": 0.00010444,
      "inclination_deg": 53.1602,
      "raan_deg": 202.9434,
      "arg_perigee_deg": 94.8925,
      "mean_anomaly_deg": 265.2195,
      "mean_motion_rev_day": 15.30197829
    },
    {
      "epoch": "2026-04-27T11:06:43.658784Z",
      "apogee_km": 475.88894628700746,
      "perigee_km": 474.4675687026029,
      "latitude_deg": 4.7833602719270314e-05,
      "longitude_deg": 176.8646630579257,
      "height_km": 476.04134020508474,
      "semi_major_axis_km": 6853.315257494805,
      "eccentricity": 0.0001037,
      "inclination_deg": 53.1604,
      "raan_deg": 198.999,
      "arg_perigee_deg": 87.1488,
      "mean_anomaly_deg": 272.9632,
      "mean_motion_rev_day": 15.30212329
    },
    {
      "epoch": "2026-04-28T12:11:35.353248Z",
      "apogee_km": 476.0649745925666,
      "perigee_km": 474.3872713000701,
      "latitude_deg": 3.0452637285405947e-05,
      "longitude_deg": 154.7656161631101,
      "height_km": 476.1859918579828,
      "semi_major_axis_km": 6853.363122946318,
      "eccentricity": 0.0001224,
      "inclination_deg": 53.1605,
      "raan_deg": 194.1454,
      "arg_perigee_deg": 94.2167,
      "mean_anomaly_deg": 265.8974,
      "mean_motion_rev_day": 15.30196298
    },
    {
      "epoch": "2026-04-29T11:42:23.695200Z",
      "apogee_km": 476.006821400827,
      "perigee_km": 474.48043646714996,
      "latitude_deg": -2.585474075959773e-05,
      "longitude_deg": 156.548087697264,
      "height_km": 476.1377755282303,
      "semi_major_axis_km": 6853.380628933988,
      "eccentricity": 0.00011136,
      "inclination_deg": 53.1599,
      "raan_deg": 189.595,
      "arg_perigee_deg": 89.6899,
      "mean_anomaly_deg": 270.4229,
      "mean_motion_rev_day": 15.30190435
    },
    {
      "epoch": "2026-04-30T11:13:13.461888Z",
      "apogee_km": 476.03801350386857,
      "perigee_km": 474.5484889730642,
      "latitude_deg": 9.042115992800413e-06,
      "longitude_deg": 158.32307396769397,
      "height_km": 476.04901733857383,
      "semi_major_axis_km": 6853.430251238467,
      "eccentricity": 0.00010867,
      "inclination_deg": 53.1592,
      "raan_deg": 185.043,
      "arg_perigee_deg": 78.97,
      "mean_anomaly_deg": 281.1423,
      "mean_motion_rev_day": 15.30173816
    },
    {
      "epoch": "2026-05-02T10:14:48.143904Z",
      "apogee_km": 476.1067055553913,
      "perigee_km": 474.44680874340884,
      "latitude_deg": -9.672629006860828e-06,
      "longitude_deg": 161.89584754039507,
      "height_km": 476.0238057889515,
      "semi_major_axis_km": 6853.413757149399,
      "eccentricity": 0.0001211,
      "inclination_deg": 53.1598,
      "raan_deg": 175.9416,
      "arg_perigee_deg": 79.5096,
      "mean_anomaly_deg": 280.6041,
      "mean_motion_rev_day": 15.3017934
    }
  ]
}